STARLINK-2737           
1 48675U 21044AP  23313.77778079  .00016773  00000+0  11417-2 0  9994
2 48675  53.0555 331.5137 0001100  84.5054 275.6061 15.06417612135599
STARLINK-2746           
1 48676U 21044AQ  23313.97313210  .00014513  00000+0  99079-3 0  9990
2 48676  53.0543 330.6363 0001411  84.2962 275.8188 15.06415514136523
STARLINK-2719           
1 48677U 21044AR  23313.76945989  .00004027  00000+0  28903-3 0  9999
2 48677  53.0543 331.5427 0001298  95.4156 264.6981 15.06406919135599
STARLINK-2615           
1 48678U 21044AS  23313.43499293  .00006036  00000+0  42373-3 0  9995
2 48678  53.0553 333.0554 0001490 110.1800 249.9349 15.06402754135546
STARLINK-2648           
1 48679U 21044AT  23313.43130597  .00006276  00000+0  43975-3 0  9990
2 48679  53.0550 333.0721 0001170  78.3019 281.8101 15.06405800135548
STARLINK-2649           
1 48680U 21044AU  23313.75934592  .00003487  00000+0  25276-3 0  9999
2 48680  53.0558 331.5961 0001410  96.6927 263.4223 15.06411883135599
STARLINK-2725           
1 48681U 21044AV  23313.69210346  .00003526  00000+0  25539-3 0  9993
2 48681  53.0543 302.1414 0000905 117.5267 242.5814 15.06409232135992
STARLINK-2743           
1 48682U 21044AW  23314.15374926  .00011721  00000+0  80380-3 0  9992
2 48682  53.0557 289.9877 0001673 102.0117 258.1060 15.06430646137046
STARLINK-2756           
1 48683U 21044AX  23313.24700092 -.00003095  00000+0 -18889-3 0  9991
2 48683  53.0539 293.9088 0001884  88.8853 271.2351 15.06409425136070
STARLINK-2741           
1 48684U 21044AY  23313.26962693  .00007725  00000+0  53682-3 0  9993
2 48684  53.0540 309.1556 0001178  81.8529 278.2593 15.06407009135869
STARLINK-2751           
1 48685U 21044AZ  23313.35021425 -.00001166  00000+0 -59344-4 0  9990
2 48685  53.0546 293.4758 0001498  99.7253 260.3905 15.06420756136091
STARLINK-2629           
1 48686U 21044BA  23314.14042944  .00016998  00000+0  11569-2 0  9990
2 48686  53.0535 295.1680 0001742  85.6405 274.4782 15.06412977137038
STARLINK-2627           
1 48687U 21044BB  23314.18184459  .00018814  00000+0  12779-2 0  9996
2 48687  53.0529 284.6988 0001598 107.5699 252.5464 15.06420312137120
STARLINK-2742           
1 48688U 21044BC  23314.18552302  .00005707  00000+0  40144-3 0  9998
2 48688  53.0528 284.6829 0001243  89.0841 271.0291 15.06423925137121
STARLINK-2617           
1 48689U 21044BD  23313.65982790  .00009543  00000+0  65834-3 0  9993
2 48689  53.0540 292.0120 0001188 102.5567 257.5555 15.06420219136132
STARLINK-2740           
1 48690U 21044BE  23313.66627841  .00008496  00000+0  58828-3 0  9990
2 48690  53.0547 302.0135 0001292  94.4486 265.6650 15.06419616135992
STARLINK-2750           
1 48691U 21044BF  23313.37371334  .00004221  00000+0  30210-3 0  9999
2 48691  53.0544 298.3267 0001411  93.9003 266.2147 15.06398618136026
STARLINK-2752           
1 48692U 21044BG  23314.15512930  .00010885  00000+0  74783-3 0  9992
2 48692  53.0538 294.9452 0001527  90.3323 269.7841 15.06432442136980
STARLINK-2618           
1 48693U 21044BH  23313.36677979  .00004135  00000+0  29632-3 0  9994
2 48693  53.0539 303.3567 0001328  89.2923 270.8218 15.06401272135950
STARLINK-2748           
1 48694U 21044BJ  23314.13113996  .00014272  00000+0  97429-3 0  9997
2 48694  53.0550 304.9168 0001517  81.2532 278.8628 15.06429061136833
STARLINK-2616           
1 48695U 21044BK  23313.68978177 -.00000058  00000+0  14998-4 0  9996
2 48695  53.0561 306.9640 0001632 116.8304 243.2852 15.06403796135935
STARLINK-2753           
1 48696U 21044BL  23314.14452635  .00024378  00000+0  16482-2 0  9993
2 48696  53.0548 309.9148 0001580 104.7903 255.3261 15.06436906136770
ONEWEB-0211             
1 48767U 21045A   23313.91080875 -.00000684  00000+0 -18507-2 0  9996
2 48767  87.8975  88.3622 0001433 100.8480 259.2812 13.15552197119479
ONEWEB-0223             
1 48768U 21045B   23313.93299438 -.00000066  00000+0 -20938-3 0  9992
2 48768  87.8971  88.3614 0001061  96.7006 263.4245 13.15549502119463
ONEWEB-0230             
1 48769U 21045C   23313.90449286  .00000005  00000+0 -20668-4 0  9991
2 48769  87.8971  88.4359 0001247  94.8887 265.2385 13.15558921119722
ONEWEB-0237             
1 48770U 21045D   23314.12156102  .00002875  00000+0  76005-2 0  9990
2 48770  87.8977  88.3119 0001302  80.7445 279.3833 13.15540467120608
ONEWEB-0235             
1 48771U 21045E   23313.86804653  .00000187  00000+0  46202-3 0  9993
2 48771  87.8974  88.3905 0000929  75.8906 284.2327 13.15548493119439
ONEWEB-0242             
1 48772U 21045F   23314.08991237 -.00006126  00000+0 -16328-1 0  9999
2 48772  87.8952  88.3381 0001204 111.5052 248.6207 13.15509726120632
ONEWEB-0241             
1 48773U 21045G   23313.92507789  .00000034  00000+0  55448-4 0  9996
2 48773  87.8985  88.3955 0001064 107.3489 252.7757 13.15542643119399
ONEWEB-0243             
1 48774U 21045H   23314.10888875 -.00000149  00000+0 -42989-3 0  9990
2 48774  87.8983  88.3161 0001296  79.2488 280.8788 13.15543611120574
ONEWEB-0222             
1 48775U 21045J   23313.87119219 -.00000150  00000+0 -43136-3 0  9990
2 48775  87.8972  88.3942 0001162  96.4516 263.6747 13.15555453120576
ONEWEB-0244             
1 48776U 21045K   23313.89022126  .00000007  00000+0 -14330-4 0  9998
2 48776  87.8967  88.3723 0001028  91.1921 268.9327 13.15553337120022
ONEWEB-0247             
1 48777U 21045L   23313.81100236  .00000057  00000+0  11731-3 0  9995
2 48777  87.8982  88.4083 0001096  44.6276 315.4943 13.15549938119450
ONEWEB-0245             
1 48778U 21045M   23314.11045666  .00000310  00000+0  78911-3 0  9990
2 48778  87.8971  88.3564 0001214 106.2032 253.9232 13.15547633120593
ONEWEB-0229             
1 48779U 21045N   23314.10570494  .00000202  00000+0  50225-3 0  9990
2 48779  87.8972  88.3482 0001405  88.0640 272.0652 13.15545271120626
ONEWEB-0228             
1 48780U 21045P   23313.88943559 -.00000134  00000+0 -38900-3 0  9994
2 48780  87.8972  88.3698 0001504  94.1813 265.9489 13.15550809119380
ONEWEB-0232             
1 48781U 21045Q   23314.11365958 -.00000836  00000+0 -22533-2 0  9996
2 48781  87.8912  88.3794 0001398  95.4832 264.6458 13.15561579120850
ONEWEB-0231             
1 48782U 21045R   23314.09144509 -.00000038  00000+0 -13406-3 0  9995
2 48782  87.8983  88.3590 0001289  88.9269 271.2009 13.15549296120569
ONEWEB-0234             
1 48783U 21045S   23313.88624822  .00000649  00000+0  16906-2 0  9996
2 48783  87.8963  88.3756 0002657 143.6650 216.4662 13.15550931119534
ONEWEB-0238             
1 48784U 21045T   23313.89736199  .00000881  00000+0  23053-2 0  9998
2 48784  87.8958  88.3855 0001621  90.2352 269.8964 13.15549308119437
ONEWEB-0240             
1 48785U 21045U   23314.15008547  .00000073  00000+0  15890-3 0  9992
2 48785  87.8975  88.3108 0001034 102.1026 258.0220 13.15549895120615
ONEWEB-0246             
1 48786U 21045V   23313.91717187  .00000251  00000+0  63155-3 0  9998
2 48786  87.8975  88.3590 0001169  84.1856 275.9408 13.15548698119333
ONEWEB-0210             
1 48787U 21045W   23314.11997599 -.00000096  00000+0 -28997-3 0  9993
2 48787  87.8971  88.3267 0001774  69.2176 290.9144 13.15555802120535
ONEWEB-0214             
1 48788U 21045X   23313.90132817  .00001839  00000+0  48511-2 0  9991
2 48788  87.8971  88.3583 0002029  73.4486 286.6867 13.15542609119344
ONEWEB-0221             
1 48789U 21045Y   23313.90764484 -.00000009  00000+0 -58268-4 0  9995
2 48789  87.8973  88.3691 0001177  92.8045 267.3220 13.15550693119437
ONEWEB-0213             
1 48790U 21045Z   23313.89654600 -.00002576  00000+0 -68768-2 0  9998
2 48790  87.8973  88.3889 0001214  85.6341 274.4928 13.15566770119492
ONEWEB-0212             
1 48791U 21045AA  23313.87911669 -.00000107  00000+0 -31933-3 0  9991
2 48791  87.8974  88.3742 0001674  99.9688 260.1631 13.15554006119485
ONEWEB-0227             
1 48792U 21045AB  23314.10096548  .00001955  00000+0  51573-2 0  9990
2 48792  87.8971  88.3443 0002187  94.0287 266.1094 13.15540792120592
ONEWEB-0226             
1 48793U 21045AC  23313.94249817 -.00001081  00000+0 -29049-2 0  9996
2 48793  87.8967  88.3881 0000942 104.6457 255.4777 13.15554862119419
ONEWEB-0224             
1 48794U 21045AD  23313.90605381  .00000135  00000+0  32330-3 0  9990
2 48794  87.8986  88.3990 0001394 118.3280 241.7991 13.15547786119334
ONEWEB-0233             
1 48795U 21045AE  23313.89893621  .00002439  00000+0  64431-2 0  9990
2 48795  87.8925  88.4396 0001446 103.7343 256.3949 13.15534744119341
ONEWEB-0190             
1 48796U 21045AF  23314.12631442  .00003690  00000+0  97668-2 0  9997
2 48796  87.8959  88.3412 0000923  48.9861 311.1349 13.15534962120574
ONEWEB-0236             
1 48797U 21045AG  23313.91558250  .00000662  00000+0  17245-2 0  9998
2 48797  87.8980  88.3623 0001499  97.1655 262.9645 13.15548757119318
ONEWEB-0248             
1 48798U 21045AH  23314.08035994 -.00005494  00000+0 -14631-1 0  9998
2 48798  87.8976  88.3396 0000836 125.6373 234.4835 13.15575587120610
ONEWEB-0225             
1 48799U 21045AJ  23314.10255621 -.00000091  00000+0 -27469-3 0  9996
2 48799  87.8947  88.3463 0000734 102.6386 257.4826 13.15549992120649
ONEWEB-0215             
1 48800U 21045AK  23313.92032900  .00000253  00000+0  63840-3 0  9992
2 48800  87.8974  88.3595 0000548  82.5003 277.6190 13.15548189119354
ONEWEB-0216             
1 48801U 21045AL  23313.92983321 -.00000056  00000+0 -18317-3 0  9997
2 48801  87.8974  88.3961 0001614  84.0222 276.1092 13.15544720119360
ONEWEB-0239             
1 48802U 21045AM  23313.93458625 -.00000072  00000+0 -22471-3 0  9997
2 48802  87.8983  88.3514 0000583 104.9405 255.1790 13.15550815119403
FENGYUN 4B              
1 48808U 21047A   23313.89215948 -.00000305  00000+0  00000+0 0  9997
2 48808   0.1278 287.5170 0003932 106.0111 109.5654  1.00273886  9054
